BEIJING 1               
1 28890U 05043A   21356.48421984  .00000108  00000+0  31168-4 0  9997
2 28890  98.0991 117.4123 0015473  13.9938 346.1694 14.61366990861280
HJ-1A                   
1 33320U 08041A   21356.42387715  .00000169  00000+0  30318-4 0  9992
2 33320  97.7006  32.5792 0022580  87.3192 273.0613 14.77706886716243
HJ-1B                   
1 33321U 08041B   21356.41696515  .00000390  00000+0  61034-4 0  9998
2 33321  97.7207  35.7781 0036230 104.9921 255.5315 14.77487989716247
YAOGAN 4                
1 33446U 08061A   21356.38995554  .00000443  00000+0  69524-4 0  9990
2 33446  97.7992 297.1357 0016106 352.8058   7.2920 14.77188719703456
DEIMOS-1                
1 35681U 09041A   21356.45382427  .00000286  00000+0  53000-4 0  9996
2 35681  97.7312 211.3951 0002951  80.6482 279.5057 14.71942335665732
UK-DMC 2                
1 35683U 09041C   21356.46691647  .00000294  00000+0  55065-4 0  9998
2 35683  97.6835 174.2821 0001806  97.8123 262.3324 14.71259721665485
RISAT 1                 
1 38248U 12017A   21356.49252299  .00002113  00000+0  13079-3 0  9994
2 38248  97.5573   4.9407 0005096 132.4383 227.7278 15.10884787532117
DMC3-FM1                
1 40715U 15032A   21356.41510328  .00000117  00000+0  25494-4 0  9995
2 40715  97.8695 241.8130 0013923 247.0312 112.9424 14.73696634347094
DMC3-FM2                
1 40716U 15032B   21356.43755150  .00000109  00000+0  24216-4 0  9994
2 40716  97.8726 242.3921 0011141 256.0940 103.9022 14.73688259347101
DMC3-FM3                
1 40717U 15032C   21356.46029736  .00000110  00000+0  24416-4 0  9996
2 40717  97.8754 243.2594 0014891 248.5438 111.4187 14.73708525347107
